NORAD_CAT_ID,OBJECT_NAME,OBJECT_TYPE,EPOCH,MEAN_MOTION,ECCENTRICITY,INCLINATION,RA_OF_ASC_NODE,ARG_OF_PERICENTER,MEAN_ANOMALY,BSTAR,MEAN_MOTION_DOT,MEAN_MOTION_DDOT,TLE_LINE0,TLE_LINE1,TLE_LINE2,SEMIMAJOR_AXIS,PERIOD,APOGEE,PERIGEE,DECAYED
54166.0,STARLINK-5280,PAYLOAD,2024-05-09 09:15:43,15.08844692,0.0001489,53.2172,128.8706,90.0278,270.0885,-6.6341e-06,-3.94e-06,0.0,0 STARLINK-5280,1 54166U 22141K   24130.38592011 -.00000394  00000-0 -66341-5 0  9994,2 54166  53.2172 128.8706 0001489  90.0278 270.0885 15.08844692 84812,6917.866,95.437,540.761,538.701,0.0
54166.0,STARLINK-5280,PAYLOAD,2024-05-09 17:12:38,15.08848356,0.0001478,53.217,127.3838,89.7412,270.375,4.5448e-06,-2.16e-06,0.0,0 STARLINK-5280,1 54166U 22141K   24130.71711644 -.00000216  00000-0  45448-5 0  9993,2 54166  53.2170 127.3838 0001478  89.7412 270.3750 15.08848356 84863,6917.855,95.437,540.742,538.697,0.0
54166.0,STARLINK-5280,PAYLOAD,2024-05-10 05:55:44,15.08841168,0.0001433,53.2166,125.0049,90.188,269.9277,0.00010298,1.351e-05,0.0,0 STARLINK-5280,1 54166U 22141K   24131.24703928  .00001351  00000-0  10298-3 0  9991,2 54166  53.2166 125.0049 0001433  90.1880 269.9277 15.08841168 84944,6917.877,95.437,540.733,538.75,0.0
54166.0,STARLINK-5280,PAYLOAD,2024-05-10 17:03:25,15.08847393,0.0001448,53.2168,122.9234,90.254,269.8618,0.00012065,1.633e-05,0.0,0 STARLINK-5280,1 54166U 22141K   24131.71071463  .00001633  00000-0  12065-3 0  9992,2 54166  53.2168 122.9234 0001448  90.2540 269.8618 15.08847393 85011,6917.858,95.437,540.724,538.721,0.0
54166.0,STARLINK-5280,PAYLOAD,2024-05-11 05:46:30,15.08855285,0.0001562,53.2162,120.5431,95.3704,264.7466,0.00027944,4.164e-05,0.0,0 STARLINK-5280,1 54166U 22141K   24132.24063151  .00004164  00000-0  27944-3 0  9990,2 54166  53.2162 120.5431 0001562  95.3704 264.7466 15.08855285 85095,6917.834,95.437,540.779,538.618,0.0
54166.0,STARLINK-5280,PAYLOAD,2024-05-12 05:37:18,15.08820264,0.0001362,53.2165,116.0825,110.3925,249.7214,-0.00044615,-7.377e-05,0.0,0 STARLINK-5280,1 54166U 22141K   24133.23423822 -.00007377  00000-0 -44615-3 0  9990,2 54166  53.2165 116.0825 0001362 110.3925 249.7214 15.08820264 85246,6917.941,95.439,540.748,538.863,0.0
54166.0,STARLINK-5280,PAYLOAD,2024-05-12 08:48:04,15.08825095,0.0001417,53.2175,115.4894,110.9405,249.1739,-0.00031555,-5.304e-05,0.0,0 STARLINK-5280,1 54166U 22141K   24133.36671965 -.00005304  00000-0 -31555-3 0  9994,2 54166  53.2175 115.4894 0001417 110.9405 249.1739 15.08825095 85261,6917.926,95.438,540.771,538.811,0.0
54166.0,STARLINK-5280,PAYLOAD,2024-05-12 23:06:33,15.0881448,0.0001329,53.2166,112.8124,115.6343,244.4786,-0.00029841,-5.031e-05,0.0,0 STARLINK-5280,1 54166U 22141K   24133.96288977 -.00005031  00000-0 -29841-3 0  9999,2 54166  53.2166 112.8124 0001329 115.6343 244.4786 15.08814480 85359,6917.958,95.439,540.743,538.904,0.0
54166.0,STARLINK-5280,PAYLOAD,2024-05-13 05:28:06,15.08815489,0.0001339,53.2164,111.6237,114.6604,245.4527,-0.00017321,-3.042e-05,0.0,0 STARLINK-5280,1 54166U 22141K   24134.22785407 -.00003042  00000-0 -17321-3 0  9999,2 54166  53.2164 111.6237 0001339 114.6604 245.4527 15.08815489 85397,6917.955,95.439,540.747,538.894,0.0
54166.0,STARLINK-5280,PAYLOAD,2024-05-13 15:00:25,15.08816996,0.0001584,53.2164,109.8395,132.6662,227.4463,3.092e-05,2.04e-06,0.0,0 STARLINK-5280,1 54166U 22141K   24134.62530059  .00000204  00000-0  30920-4 0  9990,2 54166  53.2164 109.8395 0001584 132.6662 227.4463 15.08816996 85457,6917.951,95.439,540.912,538.72,0.0
54166.0,STARLINK-5280,PAYLOAD,2024-05-13 22:57:21,15.08825186,0.0001192,53.2154,108.351,118.1041,242.0072,0.00048122,7.376e-05,0.0,0 STARLINK-5280,1 54166U 22141K   24134.95650404  .00007376  00000-0  48122-3 0  9992,2 54166  53.2154 108.3510 0001192 118.1041 242.0072 15.08825186 85500,6917.926,95.438,540.615,538.966,0.0
54166.0,STARLINK-5280,PAYLOAD,2024-05-14 05:18:54,15.08835945,0.0001262,53.2155,107.1622,118.5471,241.5648,0.00061301,9.48e-05,0.0,0 STARLINK-5280,1 54166U 22141K   24135.22146353  .00009480  00000-0  61301-3 0  9998,2 54166  53.2155 107.1622 0001262 118.5471 241.5648 15.08835945 85542,6917.893,95.438,540.631,538.885,0.0
54166.0,STARLINK-5280,PAYLOAD,2024-05-14 22:48:08,15.08856061,0.0001179,53.2151,103.8901,114.707,245.4045,0.00062614,9.695e-05,0.0,0 STARLINK-5280,1 54166U 22141K   24135.95009720  .00009695  00000-0  62614-3 0  9990,2 54166  53.2151 103.8901 0001179 114.7070 245.4045 15.08856061 85659,6917.831,95.437,540.512,538.881,0.0
54166.0,STARLINK-5280,PAYLOAD,2024-05-15 05:09:40,15.08872534,0.0001206,53.2152,102.701,117.9137,242.1977,0.00086993,0.00013596,0.0,0 STARLINK-5280,1 54166U 22141K   24136.21505054  .00013596  00000-0  86993-3 0  9992,2 54166  53.2152 102.7010 0001206 117.9137 242.1977 15.08872534 85694,6917.781,95.435,540.48,538.812,0.0
54166.0,STARLINK-5280,PAYLOAD,2024-05-15 06:45:03,15.08876061,0.0001218,53.2152,102.4038,118.694,241.4175,0.00095547,0.00014966,0.0,0 STARLINK-5280,1 54166U 22141K   24136.28128882  .00014966  00000-0  95547-3 0  9996,2 54166  53.2152 102.4038 0001218 118.6940 241.4175 15.08876061 85707,6917.77,95.435,540.478,538.793,0.0
54166.0,STARLINK-5280,PAYLOAD,2024-05-15 21:03:31,15.08869217,0.0001563,53.2154,99.7286,109.7761,250.34,0.00070025,0.00010883,0.0,0 STARLINK-5280,1 54166U 22141K   24136.87744304  .00010883  00000-0  70025-3 0  9992,2 54166  53.2154  99.7286 0001563 109.7761 250.3400 15.08869217 85791,6917.791,95.436,540.737,538.575,0.0
54166.0,STARLINK-5280,PAYLOAD,2024-05-16 05:00:26,15.08853734,0.0001549,53.2155,98.2381,146.5679,213.5411,0.00015881,2.241e-05,0.0,0 STARLINK-5280,1 54166U 22141K   24137.20864122  .00002241  00000-0  15881-3 0  9999,2 54166  53.2155  98.2381 0001549 146.5679 213.5411 15.08853734 85849,6917.838,95.437,540.775,538.632,0.0
54166.0,STARLINK-5280,PAYLOAD,2024-05-16 14:32:45,15.08865233,0.0001324,53.2167,96.4581,97.5279,262.5864,0.00037983,5.766e-05,0.0,0 STARLINK-5280,1 54166U 22141K   24137.60607825  .00005766  00000-0  37983-3 0  9990,2 54166  53.2167  96.4581 0001324  97.5279 262.5864 15.08865233 85906,6917.803,95.436,540.584,538.752,0.0
54166.0,STARLINK-5280,PAYLOAD,2024-05-17 04:51:14,15.08844501,0.0001364,53.2163,93.7819,107.5654,252.5488,0.00026912,3.998e-05,0.0,0 STARLINK-5280,1 54166U 22141K   24138.20224553  .00003998  00000-0  26912-3 0  9995,2 54166  53.2163  93.7819 0001364 107.5654 252.5488 15.08844501 85994,6917.867,95.437,540.675,538.788,0.0
54166.0,STARLINK-5280,PAYLOAD,2024-05-17 14:23:32,15.08858271,0.0001247,53.2167,91.9939,104.9793,255.1337,0.00049065,7.533e-05,0.0,0 STARLINK-5280,1 54166U 22141K   24138.59967891  .00007533  00000-0  49065-3 0  9999,2 54166  53.2167  91.9939 0001247 104.9793 255.1337 15.08858271 86055,6917.825,95.436,540.552,538.827,0.0
54166.0,STARLINK-5280,PAYLOAD,2024-05-18 03:06:38,15.08833363,0.0001155,53.2162,89.6162,106.0358,254.0761,-4.1576e-05,-9.49e-06,0.0,0 STARLINK-5280,1 54166U 22141K   24139.12960676 -.00000949  00000-0 -41576-4 0  9999,2 54166  53.2162  89.6162 0001155 106.0358 254.0761 15.08833363 86133,6917.901,95.438,540.565,538.967,0.0
54166.0,STARLINK-5280,PAYLOAD,2024-05-18 06:17:24,15.08845262,0.0001621,53.2161,89.0194,109.5665,250.5502,0.00026294,3.9e-05,0.0,0 STARLINK-5280,1 54166U 22141K   24139.26208428  .00003900  00000-0  26294-3 0  9991,2 54166  53.2161  89.0194 0001621 109.5665 250.5502 15.08845262 86155,6917.864,95.437,540.851,538.608,0.0
54166.0,STARLINK-5280,PAYLOAD,2024-05-18 14:14:19,15.08858193,0.0001801,53.218,87.534,105.6569,254.4622,0.00070788,0.00011001,0.0,0 STARLINK-5280,1 54166U 22141K   24139.59328081  .00011001  00000-0  70788-3 0  9993,2 54166  53.2180  87.5340 0001801 105.6569 254.4622 15.08858193 86201,6917.825,95.436,540.936,538.444,0.0
54166.0,STARLINK-5280,PAYLOAD,2024-05-19 02:57:25,15.08824064,0.000167,53.2172,85.1564,109.2059,250.9113,-0.00014049,-2.522e-05,0.0,0 STARLINK-5280,1 54166U 22141K   24140.12321127 -.00002522  00000-0 -14049-3 0  9996,2 54166  53.2172  85.1564 0001670 109.2059 250.9113 15.08824064 86286,6917.929,95.439,540.949,538.639,0.0
54166.0,STARLINK-5280,PAYLOAD,2024-05-19 06:08:11,15.08827427,0.0001718,53.2178,84.5612,110.7311,249.3865,3.1142e-05,2.07e-06,0.0,0 STARLINK-5280,1 54166U 22141K   24140.25569224  .00000207  00000-0  31142-4 0  9992,2 54166  53.2178  84.5612 0001718 110.7311 249.3865 15.08827427 86305,6917.919,95.438,540.972,538.595,0.0
54166.0,STARLINK-5280,PAYLOAD,2024-05-19 20:26:40,15.0884342,0.0001698,53.2179,81.884,115.2805,244.8363,0.001288,0.00020272,0.0,0 STARLINK-5280,1 54166U 22141K   24140.85185697  .00020272  00000-0  12880-2 0  9996,2 54166  53.2179  81.8840 0001698 115.2805 244.8363 15.08843420 86397,6917.87,95.437,540.91,538.56,0.0
54166.0,STARLINK-5280,PAYLOAD,2024-05-20 02:48:12,15.08849185,0.0001593,53.2183,80.6964,113.4126,246.7033,0.0011487,0.00018045,0.0,0 STARLINK-5280,1 54166U 22141K   24141.11681648  .00018045  00000-0  11487-2 0  9990,2 54166  53.2183  80.6964 0001593 113.4126 246.7033 15.08849185 86430,6917.852,95.437,540.819,538.615,0.0
54166.0,STARLINK-5280,PAYLOAD,2024-05-20 20:17:27,15.08846388,0.000151,53.2176,77.4254,100.3007,259.8156,0.00045395,6.945e-05,0.0,0 STARLINK-5280,1 54166U 22141K   24141.84545631  .00006945  00000-0  45395-3 0  9993,2 54166  53.2176  77.4254 0001510 100.3007 259.8156 15.08846388 86545,6917.861,95.437,540.77,538.681,0.0
54166.0,STARLINK-5280,PAYLOAD,2024-05-21 02:39:00,15.08834231,0.0001368,53.2175,76.2359,112.1399,247.9738,5.6931e-05,6.18e-06,0.0,0 STARLINK-5280,1 54166U 22141K   24142.11041938  .00000618  00000-0  56931-4 0  9995,2 54166  53.2175  76.2359 0001368 112.1399 247.9738 15.08834231 86585,6917.898,95.438,540.709,538.817,0.0
54166.0,STARLINK-5280,PAYLOAD,2024-05-22 04:05:09,15.08853754,0.0001207,53.2177,71.4761,86.5742,273.5388,0.00045804,7.012e-05,0.0,0 STARLINK-5280,1 54166U 22141K   24143.17025371  .00007012  00000-0  45804-3 0  9996,2 54166  53.2177  71.4761 0001207  86.5742 273.5388 15.08853754 86744,6917.838,95.437,540.538,538.868,0.0
